NORAD_CAT_ID,OBJECT_NAME,OBJECT_TYPE,EPOCH,MEAN_MOTION,ECCENTRICITY,INCLINATION,RA_OF_ASC_NODE,ARG_OF_PERICENTER,MEAN_ANOMALY,BSTAR,MEAN_MOTION_DOT,MEAN_MOTION_DDOT,TLE_LINE0,TLE_LINE1,TLE_LINE2,SEMIMAJOR_AXIS,PERIOD,APOGEE,PERIGEE,DECAYED
53800.0,STARLINK-4720,PAYLOAD,2023-11-02 07:51:38,15.08839687,0.0001538,53.2158,157.4022,110.8461,249.2696,0.0001046,1.377e-05,0.0,0 STARLINK-4720,1 53800U 22111AD  23306.32753281  .00001377  00000-0  10460-3 0  9990,2 53800  53.2158 157.4022 0001538 110.8461 249.2696 15.08839687 63429,6917.881,95.438,540.81,538.682,0.0
53800.0,STARLINK-4720,PAYLOAD,2023-11-02 20:34:43,15.08843338,0.000144,53.2169,155.022,110.2786,249.8361,-4.2057e-05,-9.57e-06,0.0,0 STARLINK-4720,1 53800U 22111AD  23306.85744981 -.00000957  00000-0 -42057-4 0  9998,2 53800  53.2169 155.0220 0001440 110.2786 249.8361 15.08843338 64313,6917.87,95.437,540.731,538.739,0.0
53800.0,STARLINK-4720,PAYLOAD,2023-11-03 04:31:40,15.08835509,0.0001344,53.2168,153.5376,93.7591,266.3555,-7.4439e-05,-1.472e-05,0.0,0 STARLINK-4720,1 53800U 22111AD  23307.18865784 -.00001472  00000-0 -74439-4 0  9992,2 53800  53.2168 153.5376 0001344  93.7591 266.3555 15.08835509 63554,6917.894,95.438,540.689,538.829,0.0
53800.0,STARLINK-4720,PAYLOAD,2023-11-03 14:03:58,15.08835358,0.00013,53.217,151.7528,101.5479,258.5659,1.1037e-05,-1.12e-06,0.0,0 STARLINK-4720,1 53800U 22111AD  23307.58609678 -.00000112  00000-0  11037-4 0  9998,2 53800  53.2170 151.7528 0001300 101.5479 258.5659 15.08835358 64428,6917.895,95.438,540.659,538.86,0.0
53800.0,STARLINK-4720,PAYLOAD,2023-11-03 20:25:30,15.0884123,0.0001306,53.2165,150.5649,91.8121,268.3021,5.6226e-05,6.07e-06,0.0,0 STARLINK-4720,1 53800U 22111AD  23307.85105284  .00000607  00000-0  56226-4 0  9999,2 53800  53.2165 150.5649 0001306  91.8121 268.3021 15.08841230 63656,6917.877,95.437,540.645,538.838,0.0
53800.0,STARLINK-4720,PAYLOAD,2023-11-03 22:00:53,15.08844725,0.0001206,53.2166,150.2676,89.4837,270.6293,5.0152e-05,5.11e-06,0.0,0 STARLINK-4720,1 53800U 22111AD  23307.91729104  .00000511  00000-0  50152-4 0  9995,2 53800  53.2166 150.2676 0001206  89.4837 270.6293 15.08844725 64470,6917.866,95.437,540.565,538.897,0.0
53800.0,STARLINK-4720,PAYLOAD,2023-11-04 20:16:18,15.08840451,0.000122,53.2157,146.1045,88.386,271.7271,9.207e-05,1.178e-05,0.0,0 STARLINK-4720,1 53800U 22111AD  23308.84465627  .00001178  00000-0  92070-4 0  9990,2 53800  53.2157 146.1045 0001220  88.3860 271.7271 15.08840451 64610,6917.879,95.438,540.588,538.9,0.0
53800.0,STARLINK-4720,PAYLOAD,2023-11-05 12:10:09,15.08849345,0.0001196,53.2156,143.1307,86.883,273.2299,6.3219e-05,7.19e-06,0.0,0 STARLINK-4720,1 53800U 22111AD  23309.50705120  .00000719  00000-0  63219-4 0  9992,2 53800  53.2156 143.1307 0001196  86.8830 273.2299 15.08849345 63908,6917.852,95.437,540.544,538.889,0.0
53800.0,STARLINK-4720,PAYLOAD,2023-11-05 20:07:04,15.08854967,0.0001277,53.216,141.645,87.9017,272.2121,0.00035091,5.303e-05,0.0,0 STARLINK-4720,1 53800U 22111AD  23309.83824953  .00005303  00000-0  35091-3 0  9994,2 53800  53.2160 141.6450 0001277  87.9017 272.2121 15.08854967 64768,6917.835,95.437,540.583,538.816,0.0
53800.0,STARLINK-4720,PAYLOAD,2023-11-05 23:17:50,15.08870257,0.0001301,53.2159,141.0498,90.2835,269.8306,0.00066416,0.00010307,0.0,0 STARLINK-4720,1 53800U 22111AD  23309.97072455  .00010307  00000-0  66416-3 0  9996,2 53800  53.2159 141.0498 0001301  90.2835 269.8306 15.08870257 63974,6917.788,95.436,540.553,538.753,0.0
53800.0,STARLINK-4720,PAYLOAD,2023-11-06 05:39:23,15.08861031,0.0001156,53.216,139.8607,84.2238,275.8886,0.00052445,8.073e-05,0.0,0 STARLINK-4720,1 53800U 22111AD  23310.23568531  .00008073  00000-0  52445-3 0  9996,2 53800  53.2160 139.8607 0001156  84.2238 275.8886 15.08861031 64017,6917.816,95.436,540.481,538.881,0.0
53800.0,STARLINK-4720,PAYLOAD,2023-11-06 19:57:51,15.08850394,0.0001229,53.2153,137.1838,84.2187,275.8946,0.00012027,1.627e-05,0.0,0 STARLINK-4720,1 53800U 22111AD  23310.83184529  .00001627  00000-0  12027-3 0  9993,2 53800  53.2153 137.1838 0001229  84.2187 275.8946 15.08850394 64107,6917.849,95.437,540.564,538.863,0.0
53800.0,STARLINK-4720,PAYLOAD,2023-11-07 11:51:43,15.08830379,0.000123,53.2152,134.2109,85.7178,274.3954,-0.00011194,-2.068e-05,0.0,0 STARLINK-4720,1 53800U 22111AD  23311.49425388 -.00002068  00000-0 -11194-3 0  9993,2 53800  53.2152 134.2109 0001230  85.7178 274.3954 15.08830379 64208,6917.91,95.438,540.626,538.924,0.0
53800.0,STARLINK-4720,PAYLOAD,2023-11-08 11:42:31,15.088255,0.0001306,53.2154,129.7487,88.392,271.7221,0.0001358,1.873e-05,0.0,0 STARLINK-4720,1 53800U 22111AD  23312.48786773  .00001873  00000-0  13580-3 0  9993,2 53800  53.2154 129.7487 0001306  88.3920 271.7221 15.08825500 65160,6917.925,95.438,540.693,538.886,0.0
53800.0,STARLINK-4720,PAYLOAD,2023-11-08 19:39:27,15.08832316,0.0001297,53.2158,128.263,86.0568,274.0573,0.00035192,5.316e-05,0.0,0 STARLINK-4720,1 53800U 22111AD  23312.81906935  .00005316  00000-0  35192-3 0  9993,2 53800  53.2158 128.2630 0001297  86.0568 274.0573 15.08832316 64405,6917.904,95.438,540.666,538.872,0.0
53800.0,STARLINK-4720,PAYLOAD,2023-11-09 11:33:18,15.08843028,0.0001186,53.2161,125.2911,78.9583,281.1543,0.00049835,7.653e-05,0.0,0 STARLINK-4720,1 53800U 22111AD  23313.48146859  .00007653  00000-0  49835-3 0  9993,2 53800  53.2161 125.2911 0001186  78.9583 281.1543 15.08843028 65311,6917.871,95.437,540.557,538.916,0.0
53800.0,STARLINK-4720,PAYLOAD,2023-11-09 17:54:51,15.0884806,0.0001303,53.2161,124.1007,82.7967,277.3173,0.00048372,7.421e-05,0.0,0 STARLINK-4720,1 53800U 22111AD  23313.74642685  .00007421  00000-0  48372-3 0  9998,2 53800  53.2161 124.1007 0001303  82.7967 277.3173 15.08848060 65356,6917.856,95.437,540.622,538.819,0.0
53800.0,STARLINK-4720,PAYLOAD,2023-11-10 11:24:05,15.08848395,0.0001419,53.2165,120.8295,84.4381,275.6773,0.00023451,3.447e-05,0.0,0 STARLINK-4720,1 53800U 22111AD  23314.47506410  .00003447  00000-0  23451-3 0  9999,2 53800  53.2165 120.8295 0001419  84.4381 275.6773 15.08848395 64659,6917.855,95.437,540.701,538.738,0.0
53800.0,STARLINK-4720,PAYLOAD,2023-11-10 14:34:51,15.08848592,0.0001332,53.2164,120.235,82.7519,277.3624,0.00023897,3.518e-05,0.0,0 STARLINK-4720,1 53800U 22111AD  23314.60754360  .00003518  00000-0  23897-3 0  9996,2 53800  53.2164 120.2350 0001332  82.7519 277.3624 15.08848592 65487,6917.854,95.437,540.641,538.798,0.0
53800.0,STARLINK-4720,PAYLOAD,2023-11-10 17:45:37,15.08848843,0.000143,53.2162,119.6388,92.1017,268.0139,0.00022983,3.373e-05,0.0,0 STARLINK-4720,1 53800U 22111AD  23314.74002265  .00003373  00000-0  22983-3 0  9995,2 53800  53.2162 119.6388 0001430  92.1017 268.0139 15.08848843 65505,6917.853,95.437,540.708,538.729,0.0
53800.0,STARLINK-4720,PAYLOAD,2023-11-11 11:14:52,15.08844109,0.0001496,53.216,116.3674,93.582,266.5343,1.3975e-05,-6.6e-07,0.0,0 STARLINK-4720,1 53800U 22111AD  23315.46866141 -.00000066  00000-0  13975-4 0  9995,2 53800  53.2160 116.3674 0001496  93.5820 266.5343 15.08844109 64807,6917.868,95.437,540.768,538.698,0.0
53800.0,STARLINK-4720,PAYLOAD,2023-11-11 14:25:38,15.08844068,0.0001483,53.2164,115.7727,94.5604,265.5558,5.9261e-06,-1.94e-06,0.0,0 STARLINK-4720,1 53800U 22111AD  23315.60114163 -.00000194  00000-0  59261-5 0  9992,2 53800  53.2164 115.7727 0001483  94.5604 265.5558 15.08844068 65633,6917.868,95.437,540.759,538.707,0.0
53800.0,STARLINK-4720,PAYLOAD,2023-11-11 17:36:24,15.08844749,0.0001435,53.2176,115.178,96.2549,263.8606,1.0485e-05,-1.21e-06,0.0,0 STARLINK-4720,1 53800U 22111AD  23315.73362223 -.00000121  00000-0  10485-4 0  9992,2 53800  53.2176 115.1780 0001435  96.2549 263.8606 15.08844749 65656,6917.866,95.437,540.724,538.738,0.0
53800.0,STARLINK-4720,PAYLOAD,2023-11-12 11:05:39,15.08837801,0.0001373,53.2173,111.9069,95.5783,264.5366,2.1653e-05,5.7e-07,0.0,0 STARLINK-4720,1 53800U 22111AD  23316.46226517  .00000057  00000-0  21653-4 0  9994,2 53800  53.2173 111.9069 0001373  95.5783 264.5366 15.08837801 64954,6917.887,95.438,540.702,538.802,0.0
53800.0,STARLINK-4720,PAYLOAD,2023-11-12 14:16:25,15.0883911,0.0001371,53.2173,111.3122,95.4629,264.6519,2.9171e-05,1.76e-06,0.0,0 STARLINK-4720,1 53800U 22111AD  23316.59474413  .00000176  00000-0  29171-4 0  9993,2 53800  53.2173 111.3122 0001371  95.4629 264.6519 15.08839110 65782,6917.883,95.438,540.697,538.8,0.0
53800.0,STARLINK-4720,PAYLOAD,2023-11-12 17:27:11,15.08859938,0.0001913,53.2169,110.718,88.0153,272.1059,-0.00023502,-4.029e-05,0.0,0 STARLINK-4720,1 53800U 22111AD  23316.72721590 -.00004029  00000-0 -23502-3 0  9993,2 53800  53.2169 110.7180 0001913  88.0153 272.1059 15.08859938 64991,6917.819,95.436,541.008,538.361,0.0
53800.0,STARLINK-4720,PAYLOAD,2023-11-13 09:21:03,15.08839041,0.0001327,53.2174,107.7461,96.9626,263.1517,8.4244e-05,1.053e-05,0.0,0 STARLINK-4720,1 53800U 22111AD  23317.38962280  .00001053  00000-0  84244-4 0  9992,2 53800  53.2174 107.7461 0001327  96.9626 263.1517 15.08839041 65091,6917.883,95.438,540.666,538.83,0.0
53800.0,STARLINK-4720,PAYLOAD,2023-11-13 17:17:59,15.08839672,0.0001319,53.2174,106.2591,96.3764,263.7378,8.0924e-05,1e-05,0.0,0 STARLINK-4720,1 53800U 22111AD  23317.72082279  .00001000  00000-0  80924-4 0  9994,2 53800  53.2174 106.2591 0001319  96.3764 263.7378 15.08839672 65953,6917.881,95.438,540.659,538.834,0.0
53800.0,STARLINK-4720,PAYLOAD,2023-11-15 09:02:37,15.08838667,0.0001324,53.2174,98.8241,89.7105,270.4039,1.7317e-06,-2.6e-06,0.0,0 STARLINK-4720,1 53800U 22111AD  23319.37682539 -.00000260  00000-0  17317-5 0  9997,2 53800  53.2174  98.8241 0001324  89.7105 270.4039 15.08838667 65392,6917.884,95.438,540.665,538.834,0.0
53800.0,STARLINK-4720,PAYLOAD,2023-11-16 18:25:43,15.08842528,0.0001306,53.2179,92.5805,93.889,266.2251,5.4687e-05,5.83e-06,0.0,0 STARLINK-4720,1 53800U 22111AD  23320.76786257  .00000583  00000-0  54687-4 0  9991,2 53800  53.2179  92.5805 0001306  93.8890 266.2251 15.08842528 65605,6917.873,95.437,540.641,538.834,0.0
